"country_id","country_pid","iso2","iso3","name_eng","status","source","is_marine","cntr_code_stat","name_gaul","poli_org_code","descriptions","sqkm"
"1","1","AD","AND","Andorra","UN Member State","gisco",False,"OA",NULL,"4","","465.345807036659"
"2","2","AE","ARE","United Arab Emirates","UN Member State","eez",True,"OA",NULL,"4","United Arab Emirates Exclusive Economic Zone","52023.9300052517"
"2","3","AE","ARE","United Arab Emirates","UN Member State","gisco",False,"OA",NULL,"4","","71146.5852735845"
"3","4","AE|IR","ARE|IRN","United Arab Emirates|Iran","UN Member State|UN Member State; disputed","eez",True,"OA|OA","United Arab Emirates|Iran (Islamic Republic of)","4|4","Overlapping claim: Iran / United Arab Emirates","6174.16891149644"
"4","5","AF","AFG","Afghanistan","UN Member State","gisco",False,"OA",NULL,"4","","641809.157213741"
"5","6","AG","ATG","Antigua and Barbuda","UN Member State","eez",True,"OA",NULL,"4","Antigua and Barbuda Exclusive Economic Zone","111548.927143121"
"5","7","AG","ATG","Antigua and Barbuda","UN Member State","gisco",False,"OA",NULL,"4","","452.455438590647"
"6","8","AI","AIA","Anguilla","UK Non-Self-Governing Territory","gisco",False,"OA",NULL,"4","","78.7060271200147"
"7","9","AL","ALB","Albania","UN Member State","eez",True,"OA",NULL,"4","Albanian Exclusive Economic Zone","12148.1513362454"
"7","10","AL","ALB","Albania","UN Member State","gisco",False,"OA",NULL,"4","","28791.2339121184"
"8","11","AM","ARM","Armenia","UN Member State","gisco",False,"OA",NULL,"4","","29599.7392656562"
"9","12","AO","AGO","Angola","UN Member State","eez",True,"OA",NULL,"4","Angolan Exclusive Economic Zone","496778.867324589"
"9","13","AO","AGO","Angola","UN Member State","gisco",False,"OA",NULL,"4","","1247091.07775622"
"10","14","AQ","ATA","Antarctica","Sovereignty unsettled","eez",True,"OA",NULL,"4","Antarctic 200NM zone beyond the coastline","9603183.28968956"
"10","15","AQ","ATA","Antarctica","Sovereignty unsettled","gisco",False,"OA",NULL,"4","","12537609.8585118"
"11","16","AR","ARG","Argentina","UN Member State","eez",True,"OA",NULL,"4","Argentinean Exclusive Economic Zone","1052577.73388348"
"11","17","AR","ARG","Argentina","UN Member State","gisco",False,"OA",NULL,"4","","2780142.11966434"
"12","18","AS","ASM","American Samoa","US Non-Self-Governing Territory","gisco",False,"OA",NULL,"4","","199.98662539797"
"13","19","AT","AUT","Austria","UN Member State","gisco",False,"OA",NULL,"1","","83944.1333599721"
"14","20","AU","AUS","Australia","UN Member State","eez",True,"OA",NULL,"4","Australian Exclusive Economic Zone,Australian Exclusive Economic Zone (Macquarie Island),Christmas Island Exclusive Economic Zone,Cocos Islands Exclusive Economic Zone,Heard and McDonald Islands Exclusive Economic Zone,Norfolk Island Exclusive Economic Zone","8987844.19096125"
"14","21","AU","AUS","Australia","UN Member State","gisco",False,"OA",NULL,"4","","7687643.72777423"
"15","22","AU|TL","AUS|TLS","Australia|Timor-Leste","UN Member State|UN Member State; joint-managed","eez",True,"OA|OA",NULL,"4|4","Joint regime area Australia / East Timor","35039.1279930182"
"16","23","AW","ABW","Aruba","NL Self-Governing Territory","eez",True,"OA",NULL,"4","Aruban Exclusive Economic Zone","30016.7735185091"
"16","24","AW","ABW","Aruba","NL Self-Governing Territory","gisco",False,"OA",NULL,"4","","179.782984404817"
"17","25","AZ","AZE","Azerbaijan","UN Member State","eez",True,"OA",NULL,"4","Azerbaijanis Exclusive Economic Zone","79703.7896319678"
"17","26","AZ","AZE","Azerbaijan","UN Member State","gisco",False,"OA",NULL,"4","","86496.8739130553"
"18","27","BA","BIH","Bosnia and Herzegovina","UN Member State","gisco",False,"OA",NULL,"4","","51215.6540543329"
"19","28","BB","BRB","Barbados","UN Member State","eez",True,"OA",NULL,"4","Barbados Exclusive Economic Zone","184983.637355546"
"19","29","BB","BRB","Barbados","UN Member State","gisco",False,"OA",NULL,"4","","433.022982788611"
"20","30","BB|GY","BRB|GUY","Barbados|Guyana","UN Member State|UN Member State; joint-managed","eez",True,"OA|OA",NULL,"4|4","Joint regime area Guyana / Barbados","67.1575395500016"
"21","31","BD","BGD","Bangladesh","UN Member State","eez",True,"OA",NULL,"4","Bangladeshi Exclusive Economic Zone","109853.04502225"
"21","32","BD","BGD","Bangladesh","UN Member State","gisco",False,"OA",NULL,"4","","139825.109771119"
"22","33","BE","BEL","Belgium","UN Member State","eez",True,"OA",NULL,"1","Belgian Exclusive Economic Zone","3486.47468365741"
"22","34","BE","BEL","Belgium","UN Member State","gisco",False,"OA",NULL,"1","","30667.4198246528"
"23","35","BF","BFA","Burkina Faso","UN Member State","gisco",False,"OA",NULL,"4","","273278.73524725"
"24","36","BG","BGR","Bulgaria","UN Member State","eez",True,"OA",NULL,"3","Bulgarian Exclusive Economic Zone","34726.9825339637"
"24","37","BG","BGR","Bulgaria","UN Member State","gisco",False,"OA",NULL,"3","","110994.471043241"
"25","38","BH","BHR","Bahrain","UN Member State","eez",True,"OA",NULL,"4","Bahraini Exclusive Economic Zone","7598.81389367124"
"25","39","BH","BHR","Bahrain","UN Member State","gisco",False,"OA",NULL,"4","","673.305989074307"
"26","40","BI","BDI","Burundi","UN Member State","gisco",False,"OA",NULL,"4","","26857.0972606359"
"27","41","BJ","BEN","Benin","UN Member State","eez",True,"OA",NULL,"4","Beninese Exclusive Economic Zone","35605.7681277102"
"27","42","BJ","BEN","Benin","UN Member State","gisco",False,"OA",NULL,"4","","115247.58621378"
"28","43","BL","BLM","Saint Barthélemy","FR Territory","gisco",False,"OA",NULL,"99","","20.4031696391972"
"29","44","BM","BMU","Bermuda","UK Non-Self-Governing Territory","gisco",False,"OA",NULL,"4","","63.1963203166466"
"30","45","BN","BRN","Brunei","UN Member State","eez",True,"OA","Brunei Darussalam","4","Bruneian Exclusive Economic Zone","43097.7770561238"
"30","46","BN","BRN","Brunei","UN Member State","gisco",False,"OA","Brunei Darussalam","4","","5899.00848215928"
"31","47","BO","BOL","Bolivia","UN Member State","gisco",False,"OA",NULL,"4","","1084492.60070313"
"32","48","BQ","BES","Bonaire, Sint Eustatius and Saba","NL Non-Self-Governing Territory","eez",True,"OA",NULL,"4","Bonaire Exclusive Economic Zone,Saba Exclusive Economic Zone,Sint-Eustatius Exclusive Economic Zone","24678.880087003"
"32","49","BQ","BES","Bonaire, Sint Eustatius and Saba","NL Non-Self-Governing Territory","gisco",False,"OA",NULL,"4","","315.365189793693"
"33","50","BR","BRA","Brazil","UN Member State","eez",True,"OA",NULL,"4","Brazilian Exclusive Economic Zone,Brazilian Exclusive Economic Zone (Trindade)","3664547.80252113"
"33","51","BR","BRA","Brazil","UN Member State","gisco",False,"OA",NULL,"4","","8485737.57820221"
"34","52","BS","BHS","Bahamas","UN Member State","eez",True,"OA",NULL,"4","Bahamas Exclusive Economic Zone","620030.645167343"
"34","53","BS","BHS","Bahamas","UN Member State","gisco",False,"OA",NULL,"4","","11904.9541134076"
"35","54","BT","BTN","Bhutan","UN Member State","gisco",False,"OA",NULL,"4","","37673.8288676042"
"36","55","BV","BVT","Bouvet Island","NO Territory","eez",True,"OA",NULL,"4","Bouvet Exclusive Economic Zone","441846.874626173"
"36","56","BV","BVT","Bouvet Island","NO Territory","gisco",False,"OA",NULL,"4","","44.9479273377438"
"37","57","BW","BWA","Botswana","UN Member State","gisco",False,"OA",NULL,"4","","578248.444165293"
"38","58","BY","BLR","Belarus","UN Member State","gisco",False,"OA",NULL,"4","","207421.11808985"
"39","59","BZ","BLZ","Belize","UN Member State","eez",True,"OA",NULL,"4","Belizean Exclusive Economic Zone","34518.9071248686"
"39","60","BZ","BLZ","Belize","UN Member State","gisco",False,"OA",NULL,"4","","21765.38248157"
"40","61","CA","CAN","Canada","UN Member State","eez",True,"OA",NULL,"4","Canadian Exclusive Economic Zone","5734426.63130228"
"40","62","CA","CAN","Canada","UN Member State","gisco",False,"OA",NULL,"4","","9964656.72612544"
"41","63","CA|US","CAN|USA","Canada|United States","UN Member State|UN Member State; disputed","eez",True,"OA|OA","Canada|United States of America","4|4","Overlapping claim: Canada / USA","24758.9942470541"
"42","64","CC","CCK","Cocos (Keeling) Islands","AU Territory","gisco",False,"OA",NULL,"4","","15.7712627467665"
"43","65","CD","COD","Democratic Republic of The Congo","UN Member State","eez",True,"OA","Democratic Republic of the Congo","4","Democratic Republic of the Congo Exclusive Economic Zone","13722.8583829558"
"43","66","CD","COD","Democratic Republic of The Congo","UN Member State","gisco",False,"OA","Democratic Republic of the Congo","4","","2329167.17703072"
"44","67","CF","CAF","Central African Republic","UN Member State","gisco",False,"OA",NULL,"4","","619591.412360339"
"45","68","CG","COG","Congo","UN Member State","eez",True,"OA",NULL,"4","Congolese Exclusive Economic Zone","32704.3311208201"
"45","69","CG","COG","Congo","UN Member State","gisco",False,"OA",NULL,"4","","340599.565271827"
"46","70","CH","CHE","Switzerland","UN Member State","gisco",False,"OA",NULL,"2","","41288.6209952253"
"47","71","CI","CIV","Côte D’Ivoire","UN Member State","eez",True,"OA","Côte d’Ivoire","4","Ivory Coast Exclusive Economic Zone","170813.951579039"
"47","72","CI","CIV","Côte D’Ivoire","UN Member State","gisco",False,"OA","Côte d’Ivoire","4","","321762.644447911"
"48","73","CK","COK","Cook Islands","NZ Territory","eez",True,"OA",NULL,"4","Cook Islands Exclusive Economic Zone","1969575.70093061"
"48","74","CK","COK","Cook Islands","NZ Territory","gisco",False,"OA",NULL,"4","","241.456544244608"
"49","75","CL","CHL","Chile","UN Member State","eez",True,"OA",NULL,"4","Chilean Exclusive Economic Zone,Chilean Exclusive Economic Zone (Easter Island),Chilean Exclusive Economic Zone (San Felix and San Ambrosio islands)","3670923.90131589"
"49","76","CL","CHL","Chile","UN Member State","gisco",False,"OA",NULL,"4","","753381.070501478"
"50","77","CM","CMR","Cameroon","UN Member State","eez",True,"OA",NULL,"4","Cameroonian Exclusive Economic Zone","14878.3158022373"
"50","78","CM","CMR","Cameroon","UN Member State","gisco",False,"OA",NULL,"4","","465363.394020824"
"51","79","CN","CHN","China","UN Member State; disputed","eez",True,"OA",NULL,"4","Overlapping claim South China Sea","338838.092076694"
"52","80","CN","CHN","China","UN Member State","eez",True,"OA",NULL,"4","Chinese Exclusive Economic Zone","967336.008714173"
"52","81","CN","CHN","China","UN Member State","gisco",False,"OA",NULL,"4","","9381341.76242886"
"53","82","CO","COL","Colombia","UN Member State","eez",True,"OA",NULL,"4","Colombian Exclusive Economic Zone,Colombian Exclusive Economic Zone (Bajo Nuevo),Colombian Exclusive Economic Zone (Quitasueño),Colombian Exclusive Economic Zone (Serrana),Colombian Exclusive Economic Zone (Serranilla)","1054972.61668611"
"53","83","CO","COL","Colombia","UN Member State","gisco",False,"OA",NULL,"4","","1137939.78773305"
"54","84","CO|DO|VE","COL|DOM|VEN","Colombia|Dominican Republic|Venezuela","UN Member State|UN Member State|UN Member State; disputed","eez",True,"OA|OA|OA",NULL,"4|4|4","Overlapping claim: Venezuela / Colombia / Dominican Republic","870.791102088181"
"55","85","CP","CPT","Clipperton Island","FR Territory","gisco",False,"ER",NULL,"1","","8.85973786313525"
"56","86","CR","CRI","Costa Rica","UN Member State","eez",True,"OA",NULL,"4","Costa Rican Exclusive Economic Zone","573110.275700295"
"56","87","CR","CRI","Costa Rica","UN Member State","gisco",False,"OA",NULL,"4","","51043.1898222469"
"57","88","CR|EC","CRI|ECU","Costa Rica|Ecuador","UN Member State|UN Member State; joint-managed","eez",True,"OA|OA",NULL,"4|4","Joint regime area Costa Rica / Ecuador (Galapagos)","17337.2462254501"
"58","89","CU","CUB","Cuba","UN Member State","eez",True,"OA",NULL,"4","Cuban Exclusive Economic Zone","352096.436646798"
"58","90","CU","CUB","Cuba","UN Member State","gisco",False,"OA",NULL,"4","","110865.297546447"
"59","91","CV","CPV","Cape Verde","UN Member State","eez",True,"OA",NULL,"4","Cape Verdean Exclusive Economic Zone","801970.584356492"
"59","92","CV","CPV","Cape Verde","UN Member State","gisco",False,"OA",NULL,"4","","4056.3404746166"
"60","93","CW","CUW","Curaçao","NL Self-Governing Territory","eez",True,"OA",NULL,"4","Curaçaoan Exclusive Economic Zone","25403.3312466079"
"60","94","CW","CUW","Curaçao","NL Self-Governing Territory","gisco",False,"OA",NULL,"4","","433.608038510484"
"61","95","CX","CXR","Christmas Island","AU Territory","gisco",False,"OA",NULL,"4","","135.792088233331"
"62","96","CY","CYP","Cyprus","UN Member State","eez",True,"OA",NULL,"3","Cypriote Exclusive Economic Zone","98467.8997219541"
"62","97","CY","CYP","Cyprus","UN Member State","gisco",False,"OA",NULL,"3","","9249.19021490583"
"63","98","CZ","CZE","Czechia","UN Member State","gisco",False,"OA","Czech Republic","3","","78873.9235897197"
"64","99","DE","DEU","Germany","UN Member State","eez",True,"OA",NULL,"1","German Exclusive Economic Zone","56546.7910087869"
"64","100","DE","DEU","Germany","UN Member State","gisco",False,"OA",NULL,"1","","357668.546377919"
"65","101","DJ","DJI","Djibouti","UN Member State","eez",True,"OA",NULL,"4","Djiboutian Exclusive Economic Zone","7223.84346315116"
"65","102","DJ","DJI","Djibouti","UN Member State","gisco",False,"OA",NULL,"4","","21669.5478064758"
"66","103","DK","DNK","Denmark","UN Member State","eez",True,"OA",NULL,"1","Danish Exclusive Economic Zone","105361.482693847"
"66","104","DK","DNK","Denmark","UN Member State","gisco",False,"OA",NULL,"1","","43167.3265712358"
"67","105","DM","DMA","Dominica","UN Member State","eez",True,"OA",NULL,"4","Dominican Exclusive Economic Zone","28556.5377517697"
"67","106","DM","DMA","Dominica","UN Member State","gisco",False,"OA",NULL,"4","","750.914555193378"
"68","107","DO","DOM","Dominican Republic","UN Member State","gisco",False,"OA",NULL,"4","","48099.3359177637"
"69","108","DO|CO","DOM|COL","Dominican Republic|Colombia","UN Member State|UN Member State; joint-managed","eez",True,"OA|OA",NULL,"4|4","Joint regime area Colombia / Dominican Republic","13110.6706705497"
"70","109","DZ","DZA","Algeria","UN Member State","eez",True,"OA",NULL,"4","Algerian Exclusive Economic Zone","131213.936882757"
"70","110","DZ","DZA","Algeria","UN Member State","gisco",False,"OA",NULL,"4","","2308643.11517176"
"71","111","EC","ECU","Ecuador","UN Member State","eez",True,"OA",NULL,"4","Ecuadorian Exclusive Economic Zone,Ecuadorian Exclusive Economic Zone (Galapagos)","1051661.03669045"
"71","112","EC","ECU","Ecuador","UN Member State","gisco",False,"OA",NULL,"4","","256249.494814167"
"72","113","EC|CO","ECU|COL","Ecuador|Colombia","UN Member State|UN Member State; joint-managed","eez",True,"OA|OA",NULL,"4|4","Joint regime area Ecuador / Colombia","18661.8066308233"
"73","114","EE","EST","Estonia","UN Member State","eez",True,"OA",NULL,"3","Estonian Exclusive Economic Zone","36499.5794033396"
"73","115","EE","EST","Estonia","UN Member State","gisco",False,"OA",NULL,"3","","45326.103502903"
"74","116","EG","EGY","Egypt","UN Member State","eez",True,"OA",NULL,"4","Egyptian Exclusive Economic Zone","243219.850726844"
"74","117","EG","EGY","Egypt","UN Member State","gisco",False,"OA",NULL,"4","","980669.497657754"
"75","118","EH","ESH","Western Sahara","Non-Self-Governing Territory","gisco",False,"OA",NULL,"4","","268616.423739981"
"76","119","EH|MA","ESH|MAR","Western Sahara|Morocco","Non-Self-Governing Territory|UN Member State; disputed","eez",True,"OA|OA",NULL,"4|4","Overlapping claim Western Saharan Exclusive Economic Zone","284087.096876697"
"77","120","EL","GRC","Greece","UN Member State","eez",True,"OA",NULL,"1","Greek Exclusive Economic Zone","483282.928597019"
"77","121","EL","GRC","Greece","UN Member State","gisco",False,"OA",NULL,"1","","132026.157900989"
"78","122","ER","ERI","Eritrea","UN Member State","eez",True,"OA",NULL,"4","Eritrean Exclusive Economic Zone","78340.0942841131"
"78","123","ER","ERI","Eritrea","UN Member State","gisco",False,"OA",NULL,"4","","120761.556834808"
"79","124","ER|DJ","ERI|DJI","Eritrea|Djibouti","UN Member State|UN Member State; disputed","eez",True,"OA|OA",NULL,"4|4","Overlapping claim Doumeira Islands: Djibouti / Eritrea","245.032211647789"
"80","125","ES","ESP","Spain","UN Member State","eez",True,"OA",NULL,"1","Spanish Exclusive Economic Zone,Spanish Exclusive Economic Zone (Canary Islands)","1006326.93556433"
"80","126","ES","ESP","Spain","UN Member State","gisco",False,"OA",NULL,"1","","505983.127261039"
"81","127","ES|MA","ESP|MAR","Spain|Morocco","UN Member State|UN Member State; disputed","eez",True,"OA|OA",NULL,"1|4","Overlapping claim Alhucemas Islands: Spain / Morocco,Overlapping claim Chafarinas Islands: Spain / Morocco,Overlapping claim Melilla: Spain / Morocco,Overlapping claim Peñón de Vélez de la Gomera: Spain / Morocco,Overlapping claim Perejil Island: Spain / Morocco","81.3486249824405"
"82","128","ET","ETH","Ethiopia","UN Member State","gisco",False,"OA",NULL,"4","","1129312.66716533"
"83","129","FI","FIN","Finland","UN Member State","eez",True,"OA",NULL,"1","Finnish Exclusive Economic Zone","82246.0736019593"
"83","130","FI","FIN","Finland","UN Member State","gisco",False,"OA",NULL,"1","","337546.9980311"
"84","131","FJ","FJI","Fiji","UN Member State","eez",True,"OA",NULL,"4","Fijian Exclusive Economic Zone","1284495.11334578"
"84","132","FJ","FJI","Fiji","UN Member State","gisco",False,"OA",NULL,"4","","18292.3408170606"
"85","133","FK","FLK","Falkland Islands","UK Non-Self-Governing Territory","gisco",False,"OA","Falkland Islands (Malvinas)","4","","12025.9541445889"
"86","134","FM","FSM","Micronesia","UN Member State","eez",True,"OA","Micronesia (Federated states of)","4","Micronesian Exclusive Economic Zone","3012898.59100519"
"86","135","FM","FSM","Micronesia","UN Member State","gisco",False,"OA","Micronesia (Federated states of)","4","","740.216379939971"
"87","136","FO","FRO","Faroes","DK Territory","eez",True,"OA","Faroe Islands","4","Faeroe Exclusive Economic Zone","263468.466551417"
"87","137","FO","FRO","Faroes","DK Territory","gisco",False,"OA","Faroe Islands","4","","1407.46772083724"
"88","138","FO|IS","FRO|ISL","Faroes|Iceland","DK Territory|UN Member State; joint-managed","eez",True,"OA|OA","Faroe Islands|Iceland","4|2","Joint regime area Iceland / Denmark (Faeroe Islands)","1233.68846205957"
"89","139","FR","FRA","France","UN Member State","eez",True,"OA",NULL,"1","Amsterdam Island & St. Paul Island Exclusive Economic Zone,Bassas da India Exclusive Economic Zone,Clipperton Exclusive Economic Zone,Crozet Islands Exclusive Economic Zone,French Exclusive Economic Zone,French Guiana Exclusive Economic Zone,French Polynesian Exclusive Economic Zone,Guadeloupean Exclusive Economic Zone,Ile Europa Exclusive Economic Zone,Juan de Nova Exclusive Economic Zone,Kerguelen Exclusive Economic Zone,Martinican Exclusive Economic Zone,New Caledonian Exclusive Economic Zone,Réunion Exclusive Economic Zone,Saint-Barthélemy Exclusive Economic Zone,Saint-Martin Exclusive Economic Zone,Saint-Pierre and Miquelon Exclusive Economic Zone,Wallis and Futuna Exclusive Economic Zone","9545263.78951525"
"89","140","FR","FRA","France","UN Member State","gisco",False,"OA",NULL,"1","","638351.563591906"
"90","141","FR|ES","FRA|ESP","France|Spain","UN Member State|UN Member State; joint-managed","eez",True,"OA|OA",NULL,"1|1","Joint regime area Spain / France","2859.4922022132"
"91","142","FR|IT","FRA|ITA","France|Italy","UN Member State|UN Member State; joint-managed","eez",True,"OA|OA",NULL,"1|1","Joint regime area Italy / France","67.0413014908981"
"92","143","FR|KM","FRA|COM","France|Comoros","UN Member State|UN Member State; disputed","eez",True,"OA|OA",NULL,"1|4","Overlapping claim Mayotte: France / Comoros","66918.0948568395"
"93","144","FR|MU","FRA|MUS","France|Mauritius","UN Member State|UN Member State; disputed","eez",True,"OA|OA",NULL,"1|4","Overlapping claim Ile Tromelin: Reunion / Mauritus","274561.436071754"
"94","145","FR|VU","FRA|VUT","France|Vanuatu","UN Member State|UN Member State; disputed","eez",True,"OA|OA",NULL,"1|4","Overlapping claim Matthew and Hunter Islands: New Caledonia / Vanuatu","187417.59979917"
"95","146","GA","GAB","Gabon","UN Member State","eez",True,"OA",NULL,"4","Gabonese Exclusive Economic Zone","201175.592744003"
"95","147","GA","GAB","Gabon","UN Member State","gisco",False,"OA",NULL,"4","","264021.921816853"
"96","148","GD","GRD","Grenada","UN Member State","eez",True,"OA",NULL,"4","Grenadian Exclusive Economic Zone","25577.1959337382"
"96","149","GD","GRD","Grenada","UN Member State","gisco",False,"OA",NULL,"4","","318.309931545677"
"97","150","GE","GEO","Georgia","UN Member State","eez",True,"OA",NULL,"4","Georgian Exclusive Economic Zone","22868.8118977769"
"97","151","GE","GEO","Georgia","UN Member State","gisco",False,"OA",NULL,"4","","69666.5358177932"
"98","152","GG","GGY","Guernsey","UK Territory","gisco",False,"OA",NULL,"4","","81.3750389661102"
"99","153","GH","GHA","Ghana","UN Member State","eez",True,"OA",NULL,"4","Ghanaian Exclusive Economic Zone","227123.19783971"
"99","154","GH","GHA","Ghana","UN Member State","gisco",False,"OA",NULL,"4","","238843.837104941"
"100","155","GI","GIB","Gibraltar","UK Non-Self-Governing Territory","gisco",False,"OA",NULL,"4","","6.02812557338147"
"101","156","GL","GRL","Greenland","DK Self-Governing Territory","eez",True,"OA",NULL,"4","Greenlandic Exclusive Economic Zone","2270137.30412254"
"101","157","GL","GRL","Greenland","DK Self-Governing Territory","gisco",False,"OA",NULL,"4","","2167529.06919422"
"102","158","GM","GMB","Gambia","UN Member State","eez",True,"OA",NULL,"4","Gambian Exclusive Economic Zone","22189.4978451163"
"102","159","GM","GMB","Gambia","UN Member State","gisco",False,"OA",NULL,"4","","11087.1805333591"
"103","160","GN","GIN","Guinea","UN Member State","eez",True,"OA",NULL,"4","Guinean Exclusive Economic Zone","103612.833884447"
"103","161","GN","GIN","Guinea","UN Member State","gisco",False,"OA",NULL,"4","","243022.726645622"
"104","162","GQ","GNQ","Equatorial Guinea","UN Member State","eez",True,"OA",NULL,"4","Equatorial Guinean Exclusive Economic Zone","304038.533610891"
"104","163","GQ","GNQ","Equatorial Guinea","UN Member State","gisco",False,"OA",NULL,"4","","27000.3374987431"
"105","164","GS","SGS","South Georgia and The South Sandwich Islands","UK Territory","gisco",False,"OA","South Georgia and the South Sandwich Islands","4","","3870.34166466551"
"106","165","GT","GTM","Guatemala","UN Member State","eez",True,"OA",NULL,"4","Guatemalan Exclusive Economic Zone","110008.715056643"
"106","166","GT","GTM","Guatemala","UN Member State","gisco",False,"OA",NULL,"4","","109073.205611155"
"107","167","GU","GUM","Guam","US Non-Self-Governing Territory","gisco",False,"OA",NULL,"4","","543.893212070994"
"108","168","GW","GNB","Guinea-Bissau","UN Member State","eez",True,"OA",NULL,"4","Guinea Bissau Exclusive Economic Zone","80260.5833181084"
"108","169","GW","GNB","Guinea-Bissau","UN Member State","gisco",False,"OA",NULL,"4","","30739.1079110243"
"109","170","GY","GUY","Guyana","UN Member State","eez",True,"OA",NULL,"4","Guyanese Exclusive Economic Zone","135211.196197266"
"109","171","GY","GUY","Guyana","UN Member State","gisco",False,"OA",NULL,"4","","211721.803753461"
"110","172","GY|TT|VE","GUY|TTO|VEN","Guyana|Trinidad and Tobago|Venezuela","UN Member State|UN Member State|UN Member State; disputed","eez",True,"OA|OA|OA",NULL,"4|4|4","Overlapping claim: Trinidad and Tobago / Venezuela / Guyana","3604.12390459799"
"111","173","HK","HKG","Hong Kong","CN Special Administrative Region","gisco",False,"OA",NULL,"4","","1080.49955477885"
"112","174","HM","HMD","Heard Island and Mcdonald Islands","AU Territory","gisco",False,"OA","Heard Island and McDonald Islands","4","","412.293493032404"
"113","175","HN","HND","Honduras","UN Member State","eez",True,"OA",NULL,"4","Honduran Exclusive Economic Zone","208385.025389137"
"113","176","HN","HND","Honduras","UN Member State","gisco",False,"OA",NULL,"4","","112124.372036888"
"114","177","HN|UK","HND|GBR","Honduras|United Kingdom","UN Member State|UN Member State; joint-managed","eez",True,"OA|OA",NULL,"4|1","Joint regime area Honduras / Cayman Islands","2075.42930898244"
"115","178","HR","HRV","Croatia","UN Member State","eez",True,"OA",NULL,"4","Croatian Exclusive Economic Zone","55445.2328914489"
"115","179","HR","HRV","Croatia","UN Member State","gisco",False,"OA",NULL,"4","","56548.9130392366"
"116","180","HR|SI","HRV|SVN","Croatia|Slovenia","UN Member State|UN Member State; joint-managed","eez",True,"OA|OA",NULL,"4|3","Joint regime area Croatia / Slovenia","98.3210274633064"
"117","181","HT","HTI","Haiti","UN Member State","eez",True,"OA",NULL,"4","Haitian Exclusive Economic Zone","103534.147032998"
"117","182","HT","HTI","Haiti","UN Member State","gisco",False,"OA",NULL,"4","","27022.1787658117"
"118","183","HT|US","HTI|USA","Haiti|United States","UN Member State|UN Member State; disputed","eez",True,"OA|OA","Haiti|United States of America","4|4","Overlapping claim Navassa Island: USA / Haiti","13890.8012123228"
"119","184","HU","HUN","Hungary","UN Member State","gisco",False,"OA",NULL,"3","","93013.017478361"
"120","185","ID","IDN","Indonesia","UN Member State","eez",True,"OA",NULL,"4","Indonesian Exclusive Economic Zone","6024818.69587305"
"120","186","ID","IDN","Indonesia","UN Member State","gisco",False,"OA",NULL,"4","","1888621.09342123"
"121","187","IE","IRL","Ireland","UN Member State","eez",True,"OA",NULL,"1","Irish Exclusive Economic Zone","427345.121273536"
"121","188","IE","IRL","Ireland","UN Member State","gisco",False,"OA",NULL,"1","","69946.018076508"
"122","189","IL","ISR","Israel","UN Member State","eez",True,"OA",NULL,"4","Israeli Exclusive Economic Zone","24606.3082874283"
"122","190","IL","ISR","Israel","UN Member State","gisco",False,"OA",NULL,"4","","20774.0797852333"
"123","191","IM","IMN","Isle of Man","UK territory","gisco",False,"OA",NULL,"4","","572.461452054107"
"124","192","IN","IND","India","UN Member State","eez",True,"OA",NULL,"4","Indian Exclusive Economic Zone,Indian Exclusive Economic Zone (Andaman and Nicobar Islands)","2338882.08136503"
"124","193","IN","IND","India","UN Member State","gisco",False,"OA",NULL,"4","","2961118.31925445"
"125","194","IO","IOT","British Indian Ocean Territory","UK Territory","gisco",False,"OA",NULL,"4","","49.4946846973206"
"126","195","IQ","IRQ","Iraq","UN Member State","eez",True,"OA",NULL,"4","Iraqi Exclusive Economic Zone","1185.03038155294"
"126","196","IQ","IRQ","Iraq","UN Member State","gisco",False,"OA",NULL,"4","","435958.349907259"
"127","197","IR","IRN","Iran","UN Member State","eez",True,"OA","Iran (Islamic Republic of)","4","Iranian Exclusive Economic Zone","215325.048536388"
"127","198","IR","IRN","Iran","UN Member State","gisco",False,"OA","Iran (Islamic Republic of)","4","","1622344.70173537"
"128","199","IS","ISL","Iceland","UN Member State","eez",True,"OA",NULL,"2","Icelandic Exclusive Economic Zone","749590.501160044"
"128","200","IS","ISL","Iceland","UN Member State","gisco",False,"OA",NULL,"2","","102679.385590522"
"129","201","IS|NO","ISL|NOR","Iceland|Norway","UN Member State|UN Member State; joint-managed","eez",True,"OA|OA",NULL,"2|2","Joint regime area Iceland / Norway (Jan Mayen)","45527.7220493929"
"130","202","IT","ITA","Italy","UN Member State","eez",True,"OA",NULL,"1","Italian Exclusive Economic Zone","536797.343187084"
"130","203","IT","ITA","Italy","UN Member State","gisco",False,"OA",NULL,"1","","300577.786400535"
"131","204","JE","JEY","Jersey","UK Territory","gisco",False,"OA",NULL,"4","","120.591734449063"
"132","205","JM","JAM","Jamaica","UN Member State","eez",True,"OA",NULL,"4","Jamaican Exclusive Economic Zone","256949.583191101"
"132","206","JM","JAM","Jamaica","UN Member State","gisco",False,"OA",NULL,"4","","10964.6579463102"
"133","207","JM|CO","JAM|COL","Jamaica|Colombia","UN Member State|UN Member State; joint-managed","eez",True,"OA|OA",NULL,"4|4","Joint regime area Colombia / Jamaica","15247.2948343905"
"134","208","JO","JOR","Jordan","UN Member State","eez",True,"OA",NULL,"4","Jordanian Exclusive Economic Zone","95.6275627953785"
"134","209","JO","JOR","Jordan","UN Member State","gisco",False,"OA",NULL,"4","","89062.8213532554"
"135","210","JP","JPN","Japan","UN Member State","eez",True,"OA",NULL,"4","Japanese Exclusive Economic Zone","4065042.31640242"
"135","211","JP","JPN","Japan","UN Member State","gisco",False,"OA",NULL,"4","","373651.185381678"
"136","212","JP|KR","JPN|KOR","Japan|South Korea","UN Member State|UN Member State; disputed","eez",True,"OA|OA","Japan|Republic of Korea","4|4","Overlapping claim Liancourt Rocks: Japan / South Korea","1623.62846016611"
"137","213","JP|RU","JPN|RUS","Japan|Russian Federation","UN Member State|UN Member State; disputed","eez",True,"OA|OA",NULL,"4|4","Overlapping claim Kuril Islands: Japan / Russia","213791.855185269"
"138","214","KE","KEN","Kenya","UN Member State","eez",True,"OA",NULL,"4","Kenyan Exclusive Economic Zone","114343.961572475"
"138","215","KE","KEN","Kenya","UN Member State","gisco",False,"OA",NULL,"4","","582348.824022959"
"139","216","KE|SO","KEN|SOM","Kenya|Somalia","UN Member State|UN Member State; disputed","eez",True,"OA|OA",NULL,"4|4","Overlapping claim: Kenya / Somalia","50155.4229056097"
"140","217","KG","KGZ","Kyrgyzstan","UN Member State","gisco",False,"OA",NULL,"4","","199188.195353482"
"141","218","KH","KHM","Cambodia","UN Member State","eez",True,"OA",NULL,"4","Cambodian Exclusive Economic Zone","48588.2669927151"
"141","219","KH","KHM","Cambodia","UN Member State","gisco",False,"OA",NULL,"4","","181423.857437992"
"142","220","KI","KIR","Kiribati","UN Member State","eez",True,"OA",NULL,"4","Kiribati Exclusive Economic Zone (Gilbert Islands),Kiribati Exclusive Economic Zone (Line Islands),Kiribati Exclusive Economic Zone (Phoenix Islands)","3440201.24963294"
"142","221","KI","KIR","Kiribati","UN Member State","gisco",False,"OA",NULL,"4","","1022.47591802678"
"143","222","KM","COM","Comoros","UN Member State","eez",True,"OA",NULL,"4","Comoran Exclusive Economic Zone","164497.470191655"
"143","223","KM","COM","Comoros","UN Member State","gisco",False,"OA",NULL,"4","","1651.65037466634"
"144","224","KN","KNA","Saint Kitts and Nevis","UN Member State","eez",True,"OA",NULL,"4","Saint Kitts and Nevis Exclusive Economic Zone","9506.12419377835"
"144","225","KN","KNA","Saint Kitts and Nevis","UN Member State","gisco",False,"OA",NULL,"4","","262.507537673143"
"145","226","KP","PRK","North Korea","UN Member State","eez",True,"OA","Dem People's Rep of Korea","4","North Korean Exclusive Economic Zone","114277.209104196"
"145","227","KP","PRK","North Korea","UN Member State","gisco",False,"OA","Dem People's Rep of Korea","4","","122465.204043455"
"146","228","KR","KOR","South Korea","UN Member State","eez",True,"OA","Republic of Korea","4","South Korean Exclusive Economic Zone","348948.189357763"
"146","229","KR","KOR","South Korea","UN Member State","gisco",False,"OA","Republic of Korea","4","","99123.8531077685"
"147","230","KR|JP","KOR|JPN","South Korea|Japan","UN Member State|UN Member State; joint-managed","eez",True,"OA|OA","Republic of Korea|Japan","4|4","Joint regime area Japan / Korea","82586.3885007846"
"148","231","KW","KWT","Kuwait","UN Member State","eez",True,"OA",NULL,"4","Kuwaiti Exclusive Economic Zone","11268.37498734"
"148","232","KW","KWT","Kuwait","UN Member State","gisco",False,"OA",NULL,"4","","17394.1821809846"
"149","233","KY","CYM","Cayman Islands","UK Non-Self-Governing Territory","gisco",False,"OA",NULL,"4","","268.562015731269"
"150","234","KZ","KAZ","Kazakhstan","UN Member State","eez",True,"OA",NULL,"4","Kazakh Exclusive Economic Zone","112928.87693607"
"150","235","KZ","KAZ","Kazakhstan","UN Member State","gisco",False,"OA",NULL,"4","","2722713.06046305"
"151","236","LA","LAO","Laos","UN Member State","gisco",False,"OA","Lao People's Democratic Republic","4","","230380.418689695"
"152","237","LB","LBN","Lebanon","UN Member State","eez",True,"OA",NULL,"4","Lebanese Exclusive Economic Zone","20180.5891569977"
"152","238","LB","LBN","Lebanon","UN Member State","gisco",False,"OA",NULL,"4","","10232.9890997775"
"153","239","LC","LCA","Saint Lucia","UN Member State","eez",True,"OA",NULL,"4","Saint Lucia Exclusive Economic Zone","15424.6555461344"
"153","240","LC","LCA","Saint Lucia","UN Member State","gisco",False,"OA",NULL,"4","","602.812968200139"
"154","241","LI","LIE","Liechtenstein","UN Member State","gisco",False,"OA",NULL,"2","","159.929251805199"
"155","242","LK","LKA","Sri Lanka","UN Member State","eez",True,"OA",NULL,"4","Sri Lankan Exclusive Economic Zone","533191.845781281"
"155","243","LK","LKA","Sri Lanka","UN Member State","gisco",False,"OA",NULL,"4","","66173.2381589275"
"156","244","LR","LBR","Liberia","UN Member State","eez",True,"OA",NULL,"4","Liberian Exclusive Economic Zone","251571.402599254"
"156","245","LR","LBR","Liberia","UN Member State","gisco",False,"OA",NULL,"4","","96102.9279889769"
"157","246","LS","LSO","Lesotho","UN Member State","gisco",False,"OA",NULL,"4","","30453.3821053253"
"158","247","LT","LTU","Lithuania","UN Member State","eez",True,"OA",NULL,"3","Lithuanian Exclusive Economic Zone","6826.0670965303"
"158","248","LT","LTU","Lithuania","UN Member State","gisco",False,"OA",NULL,"3","","64899.4202421575"
"159","249","LU","LUX","Luxembourg","UN Member State","gisco",False,"OA",NULL,"1","","2595.34299860533"
"160","250","LV","LVA","Latvia","UN Member State","eez",True,"OA",NULL,"3","Latvian Exclusive Economic Zone","28313.0612847339"
"160","251","LV","LVA","Latvia","UN Member State","gisco",False,"OA",NULL,"3","","64586.0497398108"
"161","252","LY","LBY","Libya","UN Member State","eez",True,"OA","Libyan Arab Jamahiriya","4","Libyan Exclusive Economic Zone","364596.861934808"
"161","253","LY","LBY","Libya","UN Member State","gisco",False,"OA","Libyan Arab Jamahiriya","4","","1620744.40850978"
"162","254","MA","MAR","Morocco","UN Member State","eez",True,"OA",NULL,"4","Moroccan Exclusive Economic Zone","280443.317665869"
"162","255","MA","MAR","Morocco","UN Member State","gisco",False,"OA",NULL,"4","","414022.64912264"
"163","256","MC","MCO","Monaco","UN Member State","eez",True,"OA",NULL,"4","Monégasque Exclusive Economic Zone","291.188621126762"
"163","257","MC","MCO","Monaco","UN Member State","gisco",False,"OA",NULL,"4","","1.99651190559262"
"164","258","MD","MDA","Moldova","UN Member State","gisco",False,"OA","Republic of Moldova","4","","33854.7241810313"
"165","259","ME","MNE","Montenegro","UN Member State","eez",True,"OA",NULL,"4","Montenegrin Exclusive economic Zone","6386.56080742987"
"165","260","ME","MNE","Montenegro","UN Member State","gisco",False,"OA",NULL,"4","","13881.6996497178"
"166","261","MG","MDG","Madagascar","UN Member State","eez",True,"OA",NULL,"4","Madagascan Exclusive Economic Zone","1197788.8805141"
"166","262","MG","MDG","Madagascar","UN Member State","gisco",False,"OA",NULL,"4","","588836.624051745"
"167","263","MG|FR","MDG|FRA","Madagascar|France","UN Member State|UN Member State; disputed","eez",True,"OA|OA",NULL,"4|1","Overlapping claim Glorioso Islands: France / Madagascar","43534.853392608"
"168","264","MH","MHL","Marshall Islands","UN Member State","eez",True,"OA",NULL,"4","Marshall Islands Exclusive Economic Zone","2004026.65232063"
"168","265","MH","MHL","Marshall Islands","UN Member State","gisco",False,"OA",NULL,"4","","267.972510078701"
"169","266","MK","MKD","North Macedonia","UN Member State","gisco",False,"OA","The Republic of North Macedonia","4","","25435.1715309033"
"170","267","ML","MLI","Mali","UN Member State","gisco",False,"OA",NULL,"4","","1251471.56591038"
"171","268","MM","MMR","Myanmar/Burma","UN Member State","eez",True,"OA",NULL,"4","Myanmar Exclusive Economic Zone","498181.687867593"
"171","269","MM","MMR","Myanmar/Burma","UN Member State","gisco",False,"OA",NULL,"4","","667083.524127681"
"172","270","MN","MNG","Mongolia","UN Member State","gisco",False,"OA",NULL,"4","","1564528.16607665"
"173","271","MO","MAC","Macau","CN Special Administrative Region","gisco",False,"OA",NULL,"4","","16.8978682698979"
"174","272","MP","MNP","Northern Mariana Islands","US Territory","gisco",False,"OA",NULL,"4","","475.794695999576"
"175","273","MR","MRT","Mauritania","UN Member State","eez",True,"OA",NULL,"4","Mauritanian Exclusive Economic Zone","173613.989718021"
"175","274","MR","MRT","Mauritania","UN Member State","gisco",False,"OA",NULL,"4","","1038528.84011021"
"176","275","MS","MSR","Montserrat","UK Non-Self-Governing Territory","gisco",False,"OA",NULL,"4","","101.220982074937"
"177","276","MT","MLT","Malta","UN Member State","eez",True,"OA",NULL,"3","Maltese Exclusive Economic Zone","52932.5993379414"
"177","277","MT","MLT","Malta","UN Member State","gisco",False,"OA",NULL,"3","","315.43346395698"
"178","278","MU","MUS","Mauritius","UN Member State","eez",True,"OA",NULL,"4","Chagos Archipelago Exclusive Economic Zone,Mauritian Exclusive Economic Zone","1928990.88562942"
"178","279","MU","MUS","Mauritius","UN Member State","gisco",False,"OA",NULL,"4","","2013.83987983069"
"179","280","MV","MDV","Maldives","UN Member State","eez",True,"OA",NULL,"4","Maldives Exclusive Economic Zone","920714.997333434"
"179","281","MV","MDV","Maldives","UN Member State","gisco",False,"OA",NULL,"4","","223.245351595674"
"180","282","MW","MWI","Malawi","UN Member State","gisco",False,"OA",NULL,"4","","118714.447839414"
"181","283","MX","MEX","Mexico","UN Member State","eez",True,"OA",NULL,"4","Mexican Exclusive Economic Zone","3189048.73892758"
"181","284","MX","MEX","Mexico","UN Member State","gisco",False,"OA",NULL,"4","","1949526.3557852"
"182","285","MY","MYS","Malaysia","UN Member State","eez",True,"OA",NULL,"4","Malaysian Exclusive Economic Zone","509649.34269505"
"182","286","MY","MYS","Malaysia","UN Member State","gisco",False,"OA",NULL,"4","","329774.981946061"
"183","287","MZ","MOZ","Mozambique","UN Member State","eez",True,"OA",NULL,"4","Mozambican Exclusive Economic Zone","565213.139504871"
"183","288","MZ","MOZ","Mozambique","UN Member State","gisco",False,"OA",NULL,"4","","787306.243889925"
"184","289","NA","NAM","Namibia","UN Member State","eez",True,"OA",NULL,"4","Namibian Exclusive Economic Zone","562156.350522727"
"184","290","NA","NAM","Namibia","UN Member State","gisco",False,"OA",NULL,"4","","823589.283702283"
"185","291","NC","NCL","New Caledonia","FR Non-Self-Governing Territory","gisco",False,"OA",NULL,"4","","18575.1830166314"
"186","292","NE","NER","Niger","UN Member State","gisco",False,"OA",NULL,"4","","1182601.75107808"
"187","293","NF","NFK","Norfolk Island","AU Territory","gisco",False,"OA",NULL,"4","","38.0862201215889"
"188","294","NG","NGA","Nigeria","UN Member State","eez",True,"OA",NULL,"4","Nigerian Exclusive Economic Zone","177653.60971136"
"188","295","NG","NGA","Nigeria","UN Member State","gisco",False,"OA",NULL,"4","","908977.53998955"
"189","296","NI","NIC","Nicaragua","UN Member State","eez",True,"OA",NULL,"4","Nicaraguan Exclusive Economic Zone","213302.191966914"
"189","297","NI","NIC","Nicaragua","UN Member State","gisco",False,"OA",NULL,"4","","128376.092713349"
"190","298","NL","NLD","Netherlands","UN Member State","eez",True,"OA",NULL,"1","Dutch Exclusive Economic Zone,Sint-Maarten Exclusive Economic Zone","62516.7588776468"
"190","299","NL","NLD","Netherlands","UN Member State","gisco",False,"OA",NULL,"1","","37382.3501676931"
"191","300","NO","NOR","Norway","UN Member State","eez",True,"OA",NULL,"2","Jan Mayen Exclusive Economic Zone,Norwegian Exclusive Economic Zone,Svalvard Exclusive Economic Zone","1990099.69370944"
"191","301","NO","NOR","Norway","UN Member State","gisco",False,"OA",NULL,"2","","323380.019410352"
"192","302","NO|SE","NOR|SWE","Norway|Sweden","UN Member State|UN Member State; joint-managed","eez",True,"OA|OA",NULL,"2|1","Joint regime area Sweden / Norway","140.208535181164"
"193","303","NP","NPL","Nepal","UN Member State","gisco",False,"OA",NULL,"4","","147437.376911812"
"194","304","NR","NRU","Nauru","UN Member State","eez",True,"OA",NULL,"4","Nauruan Exclusive Economic Zone","309263.037676125"
"194","305","NR","NRU","Nauru","UN Member State","gisco",False,"OA",NULL,"4","","21.6870996809376"
"195","306","NU","NIU","Niue","NZ Territory","eez",True,"OA",NULL,"4","Niue Exclusive Economic Zone","318141.789692942"
"195","307","NU","NIU","Niue","NZ Territory","gisco",False,"OA",NULL,"4","","263.420596939033"
"196","308","NZ","NZL","New Zealand","UN Member State","eez",True,"OA",NULL,"4","New Zealand Exclusive Economic Zone","4103719.78596956"
"196","309","NZ","NZL","New Zealand","UN Member State","gisco",False,"OA",NULL,"4","","270414.875574377"
"197","310","OM","OMN","Oman","UN Member State","eez",True,"OA",NULL,"4","Omani Exclusive Economic Zone","556691.728385775"
"197","311","OM","OMN","Oman","UN Member State","gisco",False,"OA",NULL,"4","","308334.25715152"
"198","312","PA","PAN","Panama","UN Member State","eez",True,"OA",NULL,"4","Panamanian Exclusive Economic Zone","331156.842248751"
"198","313","PA","PAN","Panama","UN Member State","gisco",False,"OA",NULL,"4","","74850.4773556508"
"199","314","PE","PER","Peru","UN Member State","eez",True,"OA",NULL,"4","Peruvian Exclusive Economic Zone","847344.072999136"
"199","315","PE","PER","Peru","UN Member State","gisco",False,"OA",NULL,"4","","1290640.77495169"
"200","316","PE|EC","PER|ECU","Peru|Ecuador","UN Member State|UN Member State; joint-managed","eez",True,"OA|OA",NULL,"4|4","Joint regime area Peru / Ecuador","16091.4682845997"
"201","317","PF","PYF","French Polynesia","FR Territory","gisco",False,"OA",NULL,"4","","3965.42182530994"
"202","318","PG","PNG","Papua New Guinea","UN Member State","eez",True,"OA",NULL,"4","Papua New Guinean Exclusive Economic Zone","2399113.54342723"
"202","319","PG","PNG","Papua New Guinea","UN Member State","gisco",False,"OA",NULL,"4","","462230.472464204"
"203","320","PG|AU","PNG|AUS","Papua New Guinea|Australia","UN Member State|UN Member State; joint-managed","eez",True,"OA|OA",NULL,"4|4","Protected Zone established under the Torres Strait Treaty","3723.20998633887"
"204","321","PH","PHL","Philippines","UN Member State","eez",True,"OA",NULL,"4","Philippines Exclusive Economic Zone","1970780.04898061"
"204","322","PH","PHL","Philippines","UN Member State","gisco",False,"OA",NULL,"4","","296030.655873496"
"205","323","PK","PAK","Pakistan","UN Member State","eez",True,"OA",NULL,"4","Pakistani Exclusive Economic Zone","229755.707328835"
"205","324","PK","PAK","Pakistan","UN Member State","gisco",False,"OA",NULL,"4","","788455.725613189"
"206","325","PL","POL","Poland","UN Member State","eez",True,"OA",NULL,"3","Polish Exclusive Economic Zone","29778.2940666599"
"206","326","PL","POL","Poland","UN Member State","gisco",False,"OA",NULL,"3","","311928.035535391"
"207","327","PM","SPM","Saint Pierre and Miquelon","FR Territory","gisco",False,"OA",NULL,"4","","233.156743703042"
"208","328","PN","PCN","Pitcairn Islands","UK Non-Self-Governing Territory","gisco",False,"OA",NULL,"4","","48.9570452306744"
"209","329","PR","PRI","Puerto Rico","US Territory","gisco",False,"OA",NULL,"4","","8938.42773481779"
"210","330","PS","PSE","Palestine","Non-member observer state","gisco",False,"OA",NULL,"4","","6224.43391354667"
"211","331","PS|IL","PSE|ISR","Palestine|Israel","Non-member observer state|UN Member State","eez",True,"OA|OA",NULL,"4|4","Palestinian Exclusive Economic Zone","1123.04739662672"
"212","332","PT","PRT","Portugal","UN Member State","eez",True,"OA",NULL,"1","Portuguese Exclusive Economic Zone,Portuguese Exclusive Economic Zone (Azores),Portuguese Exclusive Economic Zone (Madeira)","1728692.78606369"
"212","333","PT","PRT","Portugal","UN Member State","gisco",False,"OA",NULL,"1","","91887.6693413006"
"213","334","PW","PLW","Palau","UN Member State","eez",True,"OA",NULL,"4","Palau Exclusive Economic Zone","614920.136483328"
"213","335","PW","PLW","Palau","UN Member State","gisco",False,"OA",NULL,"4","","450.897827274902"
"214","336","PY","PRY","Paraguay","UN Member State","gisco",False,"OA",NULL,"4","","399353.27544073"
"215","337","QA","QAT","Qatar","UN Member State","eez",True,"OA",NULL,"4","Qatari Exclusive Economic Zone","31446.4776456452"
"215","338","QA","QAT","Qatar","UN Member State","gisco",False,"OA",NULL,"4","","11548.8956710683"
"216","339","QA|SA|AE","QAT|SAU|ARE","Qatar|Saudi Arabia|United Arab Emirates","UN Member State|UN Member State|UN Member State; disputed","eez",True,"OA|OA|OA",NULL,"4|4|4","Overlapping claim Qatar / Saudi Arabia / United Arab Emirates","125.736859579369"
"217","340","RO","ROU","Romania","UN Member State","eez",True,"OA",NULL,"3","Romanian Exclusive economic Zone","29607.7301423719"
"217","341","RO","ROU","Romania","UN Member State","gisco",False,"OA",NULL,"3","","238368.825589152"
"218","342","RS","SRB","Serbia","UN Member State","gisco",False,"OA",NULL,"4","","88391.8064313293"
"219","343","RU","RUS","Russian Federation","UN Member State","eez",True,"OA",NULL,"4","Russian Exclusive economic Zone","7674627.65918487"
"219","344","RU","RUS","Russian Federation","UN Member State","gisco",False,"OA",NULL,"4","","16938743.5811762"
"220","345","RW","RWA","Rwanda","UN Member State","gisco",False,"OA",NULL,"4","","25388.4387591351"
"221","346","SA","SAU","Saudi Arabia","UN Member State","eez",True,"OA",NULL,"4","Saudi Arabian Exclusive Economic Zone","223726.667131329"
"221","347","SA","SAU","Saudi Arabia","UN Member State","gisco",False,"OA",NULL,"4","","1925552.71631051"
"222","348","SB","SLB","Solomon Islands","UN Member State","eez",True,"OA",NULL,"4","Solomon Islands Exclusive Economic Zone","1605552.57882339"
"222","349","SB","SLB","Solomon Islands","UN Member State","gisco",False,"OA",NULL,"4","","28263.8877971423"
"223","350","SC","SYC","Seychelles","UN Member State","eez",True,"OA",NULL,"4","Seychellois Exclusive Economic Zone","1341513.12594658"
"223","351","SC","SYC","Seychelles","UN Member State","gisco",False,"OA",NULL,"4","","499.366693529562"
"224","352","SD","SDN","Sudan","UN Member State","eez",True,"OA",NULL,"4","Sudanese Exclusive Economic Zone","62748.3169140112"
"224","353","SD","SDN","Sudan","UN Member State","gisco",False,"OA",NULL,"4","","1844677.52840441"
"225","354","SD|EG","SDN|EGY","Sudan|Egypt","UN Member State|UN Member State; disputed","eez",True,"OA|OA",NULL,"4|4","Overlapping claim: Sudan / Egypt","19731.2002713395"
"226","355","SE","SWE","Sweden","UN Member State","eez",True,"OA",NULL,"1","Swedish Exclusive Economic Zone","156031.458088165"
"226","356","SE","SWE","Sweden","UN Member State","gisco",False,"OA",NULL,"1","","449717.946725672"
"227","357","SG","SGP","Singapore","UN Member State","eez",True,"OA",NULL,"4","Singaporean Exclusive Economic Zone","822.900499849897"
"227","358","SG","SGP","Singapore","UN Member State","gisco",False,"OA",NULL,"4","","593.851245609392"
"228","359","SH","SHN","Saint Helena, Ascension and Tristan Da Cunha","UK Non-Self-Governing Territory","gisco",False,"OA","Saint Helena, Ascension and Tristan da Cunha","4","","398.785518475333"
"229","360","SI","SVN","Slovenia","UN Member State","eez",True,"OA",NULL,"3","Slovenian Exclusive Economic Zone","210.205618555419"
"229","361","SI","SVN","Slovenia","UN Member State","gisco",False,"OA",NULL,"3","","20275.6522966928"
"230","362","SJ","SJM","Svalbard and Jan Mayen","NO Territory","gisco",False,"OA","Svalbard and Jan Mayen Islands","4","","63464.1835920666"
"231","363","SK","SVK","Slovakia","UN Member State","gisco",False,"OA",NULL,"3","","49025.9306091119"
"232","364","SL","SLE","Sierra Leone","UN Member State","eez",True,"OA",NULL,"4","Sierra Leonian Exclusive Economic Zone","160544.691300004"
"232","365","SL","SLE","Sierra Leone","UN Member State","gisco",False,"OA",NULL,"4","","72281.4880313721"
"233","366","SM","SMR","San Marino","UN Member State","gisco",False,"OA",NULL,"4","","60.987236605854"
"234","367","SN","SEN","Senegal","UN Member State","eez",True,"OA",NULL,"4","Senegalese Exclusive Economic Zone","123973.482845665"
"234","368","SN","SEN","Senegal","UN Member State","gisco",False,"OA",NULL,"4","","196315.314392506"
"235","369","SN|GW","SEN|GNB","Senegal|Guinea-Bissau","UN Member State|UN Member State; joint-managed","eez",True,"OA|OA",NULL,"4|4","Joint regime area Senegal / Guinea Bissau","63493.5483489123"
"236","370","SO","SOM","Somalia","UN Member State","eez",True,"OA",NULL,"4","Somali Exclusive Economic Zone","781980.165228817"
"236","371","SO","SOM","Somalia","UN Member State","gisco",False,"OA",NULL,"4","","632564.069271554"
"237","372","SR","SUR","Suriname","UN Member State","eez",True,"OA",NULL,"4","Surinamese Exclusive Economic Zone","132775.867974028"
"237","373","SR","SUR","Suriname","UN Member State","gisco",False,"OA",NULL,"4","","145048.907449069"
"238","374","SS","SSD","South Sudan","UN Member State","gisco",False,"OA",NULL,"4","","629821.416170065"
"239","375","ST","STP","São Tomé and Príncipe","UN Member State","eez",True,"OA",NULL,"4","Sao Tome and Principe Exclusive Economic Zone","130855.243305785"
"239","376","ST","STP","São Tomé and Príncipe","UN Member State","gisco",False,"OA",NULL,"4","","991.029094063919"
"240","377","ST|NG","STP|NGA","São Tomé and Príncipe|Nigeria","UN Member State|UN Member State; joint-managed","eez",True,"OA|OA",NULL,"4|4","Joint regime area Nigeria / Sao Tome and Principe","34533.5550432382"
"241","378","SV","SLV","El Salvador","UN Member State","eez",True,"OA",NULL,"4","El Salvador Exclusive Economic Zone","94991.2103356648"
"241","379","SV","SLV","El Salvador","UN Member State","gisco",False,"OA",NULL,"4","","20732.128918458"
"242","380","SX","SXM","Sint-Maarten","NL Self-Governing Territory","gisco",False,"OA",NULL,"4","","33.7899610152862"
"243","381","SY","SYR","Syria","UN Member State","eez",True,"OA",NULL,"4","Syrian Exclusive Economic Zone","10271.4430053254"
"243","382","SY","SYR","Syria","UN Member State","gisco",False,"OA",NULL,"4","","188408.59473069"
"244","383","SZ","SWZ","Eswatini","UN Member State","gisco",False,"OA",NULL,"4","","17289.4840308073"
"245","384","TC","TCA","Turks and Caicos Islands","UK Non-Self-Governing Territory","gisco",False,"OA",NULL,"4","","529.533684987557"
"246","385","TD","TCD","Chad","UN Member State","gisco",False,"OA",NULL,"4","","1265231.57982551"
"247","386","TF","ATF","French Southern and Antarctic Lands","FR Territory","gisco",False,"OA",NULL,"4","","7700.43814297069"
"248","387","TG","TGO","Togo","UN Member State","eez",True,"OA",NULL,"4","Togolese Exclusive Economic Zone","15372.2724832164"
"248","388","TG","TGO","Togo","UN Member State","gisco",False,"OA",NULL,"4","","56766.6049230739"
"249","389","TH","THA","Thailand","UN Member State","eez",True,"OA",NULL,"4","Thailand Exclusive Economic Zone","297369.882765996"
"249","390","TH","THA","Thailand","UN Member State","gisco",False,"OA",NULL,"4","","515417.921182375"
"250","391","TJ","TJK","Tajikistan","UN Member State","gisco",False,"OA",NULL,"4","","142003.808472915"
"251","392","TK","TKL","Tokelau","NZ Non-Self-Governing Territory","eez",True,"OA",NULL,"4","Tokelau Exclusive Economic Zone","320741.645192856"
"251","393","TK","TKL","Tokelau","NZ Non-Self-Governing Territory","gisco",False,"OA",NULL,"4","","14.9717734037243"
"252","394","TL","TLS","Timor-Leste","UN Member State","eez",True,"OA",NULL,"4","East Timorian Exclusive Economic Zone,Oecussi Ambeno Exclusive Economic Zone","38984.0127265533"
"252","395","TL","TLS","Timor-Leste","UN Member State","gisco",False,"OA",NULL,"4","","14892.691874431"
"253","396","TM","TKM","Turkmenistan","UN Member State","eez",True,"OA",NULL,"4","Turkmen Exclusive Economic Zone","77491.7391774119"
"253","397","TM","TKM","Turkmenistan","UN Member State","gisco",False,"OA",NULL,"4","","472289.164818736"
"254","398","TN","TUN","Tunisia","UN Member State","eez",True,"OA",NULL,"4","Tunisian Exclusive Economic Zone","99718.3637911366"
"254","399","TN","TUN","Tunisia","UN Member State","gisco",False,"OA",NULL,"4","","155158.853968818"
"255","400","TO","TON","Tonga","UN Member State","eez",True,"OA",NULL,"4","Tongan Exclusive Economic Zone","666114.792895566"
"255","401","TO","TON","Tonga","UN Member State","gisco",False,"OA",NULL,"4","","699.807817217597"
"256","402","TR","TUR","Türkiye","UN Member State","eez",True,"OA","Turkey","3","Turkish Exclusive Economic Zone","262289.770803962"
"256","403","TR","TUR","Türkiye","UN Member State","gisco",False,"OA","Turkey","3","","780271.812164266"
"257","404","TT","TTO","Trinidad and Tobago","UN Member State","eez",True,"OA",NULL,"4","Trinidad and Tobago Exclusive Economic Zone","76581.597868222"
"257","405","TT","TTO","Trinidad and Tobago","UN Member State","gisco",False,"OA",NULL,"4","","5143.67189972832"
"258","406","TV","TUV","Tuvalu","UN Member State","eez",True,"OA",NULL,"4","Tuvaluan Exclusive Economic Zone","753124.030542854"
"258","407","TV","TUV","Tuvalu","UN Member State","gisco",False,"OA",NULL,"4","","47.5203820613431"
"259","408","TW","TWN","Taiwan","","eez",True,"OA",NULL,"4","Taiwanese Exclusive Economic Zone","355501.400081732"
"260","409","TW|JP|CN","TWN|JPN|CHN","Taiwan|Japan|China","|UN Member State|UN Member State; disputed","eez",True,"OA|OA|OA",NULL,"4|4|4","Overlapping claim Senkaku Islands: Japan / China / Taiwan","73794.063002941"
"261","410","TZ","TZA","United Republic of Tanzania","UN Member State","eez",True,"OA",NULL,"4","Tanzanian Exclusive Economic Zone","242601.214992442"
"261","411","TZ","TZA","United Republic of Tanzania","UN Member State","gisco",False,"OA",NULL,"4","","939574.546756308"
"262","413","UA","UKR","Ukraine","UN Member State","gisco",False,"OA",NULL,"4","","598406.128339674"
"263","412","UA","UKR","Ukraine","UN Member State; disputed","eez",True,"OA",NULL,"4","Overlapping claim Ukrainian Exclusive Economic Zone","136307.205256772"
"264","414","UG","UGA","Uganda","UN Member State","gisco",False,"OA",NULL,"4","","241503.918148571"
"265","415","UK","GBR","United Kingdom","UN Member State","eez",True,"OA",NULL,"1","Anguilla Exclusive Economic Zone,Ascension Exclusive Economic Zone,Bermudian Exclusive Economic Zone,British Virgin Islands Exclusive Economic Zone,Cayman Islands Exclusive Economic Zone,Guernsey Exclusive Economic Zone,Jersey Exclusive Economic Zone,Montserrat Exclusive Economic Zone,Pitcairn Islands Exclusive Economic Zone,St. Helena Exclusive Economic Zone,Tristan Da Cunha Exclusive Economic Zone,Turks and Caicos Exclusive Economic Zone,United Kingdom Exclusive Economic Zone","4072275.77563797"
"265","416","UK","GBR","United Kingdom","UN Member State","gisco",False,"OA",NULL,"1","","244613.377310729"
"266","417","UK|AR","GBR|ARG","United Kingdom|Argentina","UN Member State|UN Member State; disputed","eez",True,"OA|OA",NULL,"1|4","Overlapping claim Falkland / Malvinas Islands Exclusive Economic Zone: UK / Argentina,Overlapping claim South Georgia and South Sandwich Exclusive Economic Zone: UK / Argentina","1789395.57292246"
"267","418","UK|ES","GBR|ESP","United Kingdom|Spain","UN Member State|UN Member State; disputed","eez",True,"OA|OA",NULL,"1|1","Overlapping claim Gibraltarian Exclusive Economic Zone","388.492997372323"
"268","419","UK|FO","GBR|FRO","United Kingdom|Faroes","UN Member State|DK Territory; joint-managed","eez",True,"OA|OA","United Kingdom|Faroe Islands","1|4","Joint regime area United Kingdom / Denmark (Faeroe Islands)","8014.92302619519"
"269","420","UM","UMI","United States Minor Outlying Islands","US Territory","gisco",False,"OA",NULL,"99","","355.193722977981"
"270","421","US","USA","United States","UN Member State","eez",True,"OA","United States of America","4","American Samoa Exclusive Economic Zone,Guam Exclusive Economic Zone,Howland and Baker Islands Exclusive Economic Zone,Jarvis Island Exclusive Economic Zone,Johnston Atoll Exclusive Economic Zone,Northern Mariana Exclusive Economic Zone,Palmyra Atoll Exclusive Economic Zone,Puerto Rican Exclusive Economic Zone,United States Exclusive Economic Zone,United States Exclusive Economic Zone (Alaska),United States Exclusive Economic Zone (Hawaii),Virgin Islander Exclusive Economic Zone,Wake Island Exclusive Economic Zone","12135849.7768088"
"270","422","US","USA","United States","UN Member State","gisco",False,"OA","United States of America","4","","9473634.26166849"
"271","423","US|DO","USA|DOM","United States|Dominican Republic","UN Member State|UN Member State; disputed","eez",True,"OA|OA","United States of America|Dominican Republic","4|4","Overlapping claim: Puerto Rico / Dominican Republic","18296.3998154124"
"272","424","US|US|US|RU|RU|RU","USA|USA|USA|RUS|RUS|RUS","United States|United States|United States|Russian Federation|Russian Federation|Russian Federation","UN Member State|UN Member State|UN Member State|UN Member State|UN Member State|UN Member State; joint-managed","eez",True,"OA|OA|OA|OA|OA|OA","United States of America|United States of America|United States of America|Russian Federation|Russian Federation|Russian Federation","4|4|4|4|4|4","Joint regime area United States / Russia","4657.92602643262"
"273","425","UY","URY","Uruguay","UN Member State","eez",True,"OA",NULL,"4","Uruguayan Exclusive Economic Zone","120867.359484413"
"273","426","UY","URY","Uruguay","UN Member State","gisco",False,"OA",NULL,"4","","177811.674823791"
"274","427","UY|AR","URY|ARG","Uruguay|Argentina","UN Member State|UN Member State; joint-managed","eez",True,"OA|OA",NULL,"4|4","Joint regime area Argentina / Uruguay","41219.7832352582"
"275","428","UZ","UZB","Uzbekistan","UN Member State","gisco",False,"OA",NULL,"4","","449623.772880115"
"276","429","VA","VAT","Vatican City","The City of Vatican","gisco",False,"OA",NULL,"4","","0.503464441405937"
"277","430","VC","VCT","Saint Vincent and The Grenadines","UN Member State","eez",True,"OA","Saint Vincent and the Grenadines","4","Saint Vincent and the Grenadines Exclusive Economic Zone","36249.8610205643"
"277","431","VC","VCT","Saint Vincent and The Grenadines","UN Member State","gisco",False,"OA","Saint Vincent and the Grenadines","4","","426.669771252838"
"278","432","VE","VEN","Venezuela","UN Member State","eez",True,"OA",NULL,"4","Venezuelan Exclusive Economic Zone","471110.384155125"
"278","433","VE","VEN","Venezuela","UN Member State","gisco",False,"OA",NULL,"4","","912026.957864697"
"279","434","VE|AW|DO","VEN|ABW|DOM","Venezuela|Aruba|Dominican Republic","UN Member State|NL Self-Governing Territory|UN Member State; disputed","eez",True,"OA|OA|OA",NULL,"4|4|4","Overlapping claim: Venezuela / Aruba / Dominican Republic","1113.31728543877"
"280","435","VG","VGB","British Virgin Islands","UK Non-Self-Governing Territory","gisco",False,"OA",NULL,"4","","154.202399161088"
"281","436","VI","VIR","Us Virgin Islands","US Non-Self-Governing Territory","gisco",False,"OA","United States Virgin Islands","4","","352.38358200472"
"282","437","VN","VNM","Vietnam","UN Member State","eez",True,"OA","Viet Nam","4","Vietnamese Exclusive Economic Zone","749294.320812139"
"282","438","VN","VNM","Vietnam","UN Member State","gisco",False,"OA","Viet Nam","4","","327576.540516074"
"283","439","VU","VUT","Vanuatu","UN Member State","eez",True,"OA",NULL,"4","Vanuatu Exclusive Economic Zone","623524.684857971"
"283","440","VU","VUT","Vanuatu","UN Member State","gisco",False,"OA",NULL,"4","","12236.0360958662"
"284","441","WF","WLF","Wallis and Futuna","FR Territory","gisco",False,"OA",NULL,"4","","141.584492132273"
"285","442","WS","WSM","Samoa","UN Member State","eez",True,"OA",NULL,"4","Samoan Exclusive Economic Zone","130498.472771425"
"285","443","WS","WSM","Samoa","UN Member State","gisco",False,"OA",NULL,"4","","2835.33142477399"
"286","444","XA","XA","Paracel Islands","Sovereignty unsettled","gisco",False,"UA",NULL,"99","","8.05426838433369"
"287","445","XB","XB","Spratly Islands","Sovereignty unsettled","gisco",False,"UA",NULL,"99","","1.48069966533021"
"288","446","XC","XC","Aksai Chin","Sovereignty unsettled","gisco",False,"UA",NULL,"99","","30665.3821723525"
"289","447","XD","XD","Arunachal Pradesh","Sovereignty unsettled","gisco",False,"UA",NULL,"99","","67964.8609899985"
"290","448","XE","XE","China/India","Sovereignty unsettled","gisco",False,"UA",NULL,"99","","3526.28245182085"
"291","449","XF","XF","Hala'Ib Triangle","Sovereignty unsettled","gisco",False,"UA",NULL,"99","","17684.0557471996"
"292","450","XG","XG","Ilemi Triangle","Sovereignty unsettled","gisco",False,"UA",NULL,"99","","3178.6275580548"
"293","451","XH","XH","Jammu Kashmir","Sovereignty unsettled","gisco",False,"UA",NULL,"99","","186035.291449024"
"294","452","XI","XI","Kuril Islands","Sovereignty unsettled","gisco",False,"UA",NULL,"99","","4996.49984168839"
"295","453","XL","XL","Navassa Island","US Territory","gisco",False,"UA",NULL,"99","","4.66451770067005"
"296","454","XM","XM","Scarborough Reef","Sovereignty unsettled","gisco",False,"UA",NULL,"99","","44.3097195891583"
"297","455","XN","XN","Senkaku Islands","Sovereignty unsettled","gisco",False,"UA",NULL,"99","","5.50211114398159"
"298","456","XO","XO","Bassas Da India","FR Territory","gisco",False,"UA",NULL,"99","","37.0974379326351"
"299","457","XU","XU","Abyei","Sovereignty unsettled","gisco",False,"UA",NULL,"99","","9943.6322909418"
"300","458","XV","XV","Bir Tawil (Disputed Territory)","Sovereignty unsettled","gisco",False,"UA",NULL,"99","","1990.00517360615"
"301","459","YE","YEM","Yemen","UN Member State","eez",True,"OA",NULL,"4","Yemeni Exclusive Economic Zone","526899.070172806"
"301","460","YE","YEM","Yemen","UN Member State","gisco",False,"OA",NULL,"4","","453595.957404954"
"302","461","ZA","ZAF","South Africa","UN Member State","eez",True,"OA",NULL,"4","South African Exclusive Economic Zone,South African Exclusive Economic Zone (Prince Edward Islands)","1547490.99468662"
"302","462","ZA","ZAF","South Africa","UN Member State","gisco",False,"OA",NULL,"4","","1220128.69223363"
"303","463","ZM","ZMB","Zambia","UN Member State","gisco",False,"OA",NULL,"4","","751055.146495264"
"304","464","ZW","ZWE","Zimbabwe","UN Member State","gisco",False,"OA",NULL,"4","","390647.664038703"
